2023-049A               
1 56159U 23049A   23122.43155219  .00038320  00000+0  13671-2 0  9999
2 56159  97.4113 267.4441 0013164 182.0492 263.2821 15.28698598  4562
2023-050A               
1 56162U 23050A   23122.41967166  .00000120  00000+0  96642-4 0  9993
2 56162  81.0011  86.4464 0006733 146.7717 213.3863 13.84582446  4125
CHECKMATE 8             
1 56163U 23050B   23122.41843866  .00000011  00000+0  00000+0 0  9991
2 56163  80.9984  86.4437 0006877 143.9200 216.2426 13.84638276  4139
CHECKMATE 5             
1 56164U 23050C   23122.41746157  .00000107  00000+0  84927-4 0  9998
2 56164  80.9996  86.4390 0006997 143.2487 216.9150 13.84685239  4125
CHECKMATE 4             
1 56165U 23050D   23122.41696403  .00000117  00000+0  94244-4 0  9991
2 56165  81.0035  86.4503 0007071 142.4777 217.6873 13.84708633  4062
CHECKMATE 6             
1 56166U 23050E   23122.41555040  .00000011  00000+0  00000+0 0  9998
2 56166  81.0043  86.4411 0009204 143.3771 216.8016 13.84773873  4062
CHECKMATE 7             
1 56167U 23050F   23122.41512351  .00000011  00000+0  00000+0 0  9997
2 56167  81.0020  86.4490 0007700 136.4851 223.6916 13.84792300  4067
CHECKMATE 2             
1 56168U 23050G   23122.41415930  .00000011  00000+0  00000+0 0  9993
2 56168  81.0022  86.4483 0007450 137.7866 222.3882 13.84837884  4069
CHECKMATE 1             
1 56169U 23050H   23122.41317285  .00000011  00000+0  00000+0 0  9998
2 56169  81.0007  86.4450 0006567 142.2973 217.8644 13.84883826  4067
CHECKMATE 3             
1 56170U 23050J   23122.57800139  .00000179  00000+0  15568-3 0  9996
2 56170  80.9993  86.3300 0010315 129.0786 231.1485 13.82338991  4085
BB 1                    
1 56171U 23050K   23116.42034529  .00000143  00000+0  11939-3 0  9995
2 56171  81.0009  92.1970 0010646 143.9462 216.2409 13.83530221  3234
2023-051A               
1 56172U 23051A   23122.48480610  .00046657  27378-5  36964-3 0  9994
2 56172  97.3318 196.2675 0145419 257.2162 232.2483 15.58693791  3943
INTELSAT 40E            
1 56174U 23052A   23122.60960898 -.00000186  00000+0  00000+0 0  9995
2 56174   0.0206 230.7898 0005539  74.5386  43.2759  1.00457673   389
FALCON 9 R/B            
1 56175U 23052B   23122.07437676  .00031832 -58275-6  12597-2 0  9993
2 56175  27.1049  84.8243 6975479 196.3030 118.3065  2.71611267   688
IMECE                   
1 56178U 23054A   23122.31754765  .00000638  00000+0  12512-3 0  9999
2 56178  98.2116  18.0174 0008800 152.4483 207.7171 14.66064048  3119
2023-054B               
1 56179U 23054B   23122.51815108  .00007909  00000+0  35753-3 0  9991
2 56179  97.4072  18.0781 0008660 187.3058 297.0124 15.21171534  3239
DEWASAT-2               
1 56180U 23054C   23122.55801024  .00012421  00000+0  55299-3 0  9991
2 56180  97.4140  18.1403 0010148 185.9383 174.1734 15.21556347  3228
KILICSAT                
1 56181U 23054D   23122.62358646  .00011490  00000+0  51194-3 0  9992
2 56181  97.4103  18.1965 0009586 182.7905 177.3280 15.21554899  3243
LEMUR-2-ONREFLECTION    
1 56182U 23054E   23122.55664494  .00016371  00000+0  72401-3 0  9993
2 56182  97.4032  18.1157 0008758 177.0191 183.1099 15.21732075  3238
2023-054F               
1 56183U 23054F   23122.49199356  .00008156  00000+0  36515-3 0  9995
2 56183  97.4056  18.0546 0008495 172.0961 188.0410 15.21494939  3228
SSS-2B                  
1 56184U 23054G   23122.49091758  .00011808  00000+0  52411-3 0  9994
2 56184  97.4165  18.0830 0010882 184.9673 175.1457 15.21665416  3229
BRO-9                   
1 56185U 23054H   23122.51318600  .00014811  00000+0  65529-3 0  9997
2 56185  97.4060  18.0815 0009086 177.5324 306.7897 15.21736483  3225
GHGSAT-C8               
1 56186U 23054J   23122.44561206  .00009064  00000+0  40492-3 0  9998
2 56186  97.4107  18.0259 0010002 182.2386 285.8273 15.21524855  3213
LEMUR-2-SPACEGUS        
1 56187U 23054K   23122.55490459  .00015794  00000+0  69552-3 0  9997
2 56187  97.4039  18.1177 0008932 168.3106 191.8339 15.21884607  3237
CIRBE                   
1 56188U 23054L   23122.55385323  .00014552  00000+0  63950-3 0  9998
2 56188  97.4116  18.1412 0010087 176.5397 183.5911 15.21963446  3236
2023-054M               
1 56189U 23054M   23122.48844517  .00008622  00000+0  38208-3 0  9995
2 56189  97.4130  18.0799 0010475 176.7473 183.3833 15.21812090  3226
2023-054N               
1 56190U 23054N   23122.55336470  .00009826  00000+0  43366-3 0  9997
2 56190  97.4063  18.1266 0010021 167.3874 192.7615 15.21915486  3237
HAWK-7A                 
1 56191U 23054P   23122.48550995  .00004072  00000+0  18042-3 0  9991
2 56191  97.4101  18.0847 0011100 171.3136 188.8295 15.22135767  3226
ION SCV-010             
1 56192U 23054Q   23122.55283420  .00005496  00000+0  24438-3 0  9993
2 56192  97.4095  18.1379 0010729 169.6345 190.5115 15.21863541  3237
HAWK-7B                 
1 56193U 23054R   23122.55000171  .00006214  00000+0  27197-3 0  9998
2 56193  97.4072  18.1249 0011881 161.8957 198.2704 15.22340015  3238
2023-054S               
1 56194U 23054S   23122.55049233  .00013004  00000+0  56739-3 0  9990
2 56194  97.4100  18.1424 0010957 169.4401 190.7068 15.22224666  3230
2023-054T               
1 56195U 23054T   23122.55118858  .00007279  00000+0  32073-3 0  9993
2 56195  97.4087  18.1355 0011315 166.2761 193.8785 15.22056588  3237
VIGORIDE-6              
1 56196U 23054U   23122.54796873  .00008417  00000+0  36641-3 0  9992
2 56196  97.4091  18.1441 0011803 170.8640 189.2813 15.22414411  3232
2023-054V               
1 56197U 23054V   23122.48279995  .00007811  00000+0  34138-3 0  9993
2 56197  97.4084  18.0738 0012143 168.3556 191.7964 15.22300529  3227
UMBRA-06                
1 56198U 23054W   23122.49980493  .00031135  00000+0  16047-2 0  9991
2 56198  97.4059  18.0483 0015694 141.8740 218.3606 15.16204263  3222
2023-054X               
1 56199U 23054X   23122.48154505  .00010213  00000+0  44326-3 0  9994
2 56199  97.4100  18.0817 0012168 170.4659 189.6811 15.22456657  3222
HAWK-7C                 
1 56200U 23054Y   23122.54937603  .00005298  00000+0  23505-3 0  9995
2 56200  97.4080  18.1361 0011614 164.1148 196.0454 15.21949271  3239
2023-054Z               
1 56201U 23054Z   23122.54580431  .00010265  00000+0  44361-3 0  9992
2 56201  97.4086  18.1433 0012953 169.2935 190.8579 15.22590229  3239
2023-054AA              
1 56202U 23054AA  23122.47988046  .00010309  00000+0  44527-3 0  9992
2 56202  97.4099  18.0839 0013050 169.2751 190.8766 15.22607239  3225
2023-054AB              
1 56203U 23054AB  23122.54537353  .00010451  00000+0  45105-3 0  9993
2 56203  97.4065  18.1373 0013108 165.8914 194.2691 15.22628703  3235
GHGSAT-C6               
1 56204U 23054AC  23122.50078880  .00009633  00000+0  41433-3 0  9995
2 56204  97.4124  18.1149 0013877 164.3607 321.3900 15.22759500  3224
2023-054AD              
1 56205U 23054AD  23122.53830448  .00009294  00000+0  39411-3 0  9991
2 56205  97.4122  18.1627 0015769 162.5286 197.6497 15.23227213  3237
LEMUR-2-ROMEO-N-LEO     
1 56206U 23054AE  23122.47327878  .00031670  00000+0  13209-2 0  9992
2 56206  97.4034  18.0729 0014238 161.6654 198.5099 15.23526808  3220
2023-054AF              
1 56207U 23054AF  23122.53937849  .00018664  00000+0  78578-3 0  9994
2 56207  97.4160  18.1722 0015159 167.4859 192.6757 15.23307069  3232
2023-054AG              
1 56208U 23054AG  23122.47531702  .00010511  00000+0  44853-3 0  9998
2 56208  97.4025  18.0696 0013952 157.6875 202.4972 15.23003537  3221
GHGSAT-C7               
1 56209U 23054AH  23122.49892624  .00004604  00000+0  19935-3 0  9993
2 56209  97.4090  18.1082 0014016 159.2344 325.6687 15.22822948  3220
CONNECTA T2.1           
1 56210U 23054AJ  23122.49758394  .00006377  00000+0  27358-3 0  9997
2 56210  97.4039  18.0989 0014572 158.3068 326.9985 15.22980908  3226
INSPIRE-SAT 7           
1 56211U 23054AK  23122.53803759  .00016732  00000+0  70316-3 0  9997
2 56211  97.4142  18.1689 0015583 165.0578 195.1122 15.23386246  3230
ROSEYCUBESAT-1          
1 56212U 23054AL  23122.53662877  .00017698  00000+0  74025-3 0  9995
2 56212  97.4149  18.1722 0016043 164.6326 195.5402 15.23528478  3234
2023-054AM              
1 56213U 23054AM  23122.53664977  .00016607  00000+0  69543-3 0  9997
2 56213  97.4068  18.1513 0015466 158.9748 201.2128 15.23509895  3237
LS3C                    
1 56214U 23054AN  23122.53613787  .00014833  00000+0  62114-3 0  9997
2 56214  97.4096  18.1589 0015933 160.4376 199.7476 15.23529251  3231
VCUB1                   
1 56215U 23054AP  23122.50399366  .00015972  00000+0  68200-3 0  9996
2 56215  97.4095  18.1038 0012302 152.6444 332.4070 15.22898657  3140
2023-054AQ              
1 56216U 23054AQ  23117.81962120  .00014346  00000+0  64482-3 0  9991
2 56216  97.4083  13.4739 0007855 176.8690 183.2596 15.21213273  2410
2023-054AR              
1 56217U 23054AR  23120.71080233  .00010389  00000+0  45446-3 0  9993
2 56217  97.4129  16.3309 0011865 179.7888 180.0869 15.22187599  2953
2023-054AS              
1 56218U 23054AS  23122.15920661  .00007055  00000+0  31519-3 0  9994
2 56218  97.4057  17.7419 0010214 165.1628 194.7278 15.21603760  3172
FENGYUN 3G              
1 56232U 23055A   23122.54571966  .00033436  00000+0  53270-3 0  9994
2 56232  49.9995 112.7610 0005613 352.1710 106.0076 15.52877073  2565
STARLINK-30096          
1 56286U 23056A   23122.21720286  .01085979  00000+0  29822-2 0  9994
2 56286  43.0023 125.3541 0002403 116.6445 243.4676 15.90705344  3269
STARLINK-30107          
1 56287U 23056B   23122.58335648 -.01268220  00000+0 -22358-1 0  9999
2 56287  43.0018 124.8817 0001401 270.9964  26.3702 15.52372542  1300
STARLINK-30106          
1 56288U 23056C   23122.58335648 -.01263593  00000+0 -22255-1 0  9994
2 56288  43.0018 124.8796 0001398 265.7001  32.4880 15.52388875  1307
